STARLINK-34306          
1 64259U 25120D   26068.51913522  .00025410  00000+0  86737-3 0  9991
2 64259  53.1601 117.2262 0001353  76.6066 283.5085 15.30190625 43840
KUIPER-00208            
1 67775U 26030M   26068.67231509  .00043852  00000+0  13883-2 0  9994
2 67775  51.8846 219.6993 0015525  57.3146 302.9333 15.32208734  5080
